ATLAS CENTAUR 2         
1 00694U 63047A   26167.92644149  .00001112  00000+0  12026-3 0  9998
2 00694  30.3582   0.8522 0546001 235.2149 119.5890 14.12519242145667
THOR AGENA D R/B        
1 00733U 64002A   26168.01738706  .00000115  00000+0  58186-4 0  9998
2 00733  99.1154 186.7402 0032321 331.0816  28.8575 14.34065479252530
SL-3 R/B                
1 00877U 64053B   26167.98773875  .00000069  00000+0  37669-4 0  9995
2 00877  65.0776  40.0976 0081009 261.1712  98.0208 14.61426661281307
SL-8 R/B                
1 02802U 67045B   26168.22425895  .00000127  00000+0  42816-4 0  9998
2 02802  74.0095 162.1893 0063430 146.5774 213.9413 14.45681938103409
SL-8 R/B                
1 03230U 68040B   26167.98338000  .00002661  00000+0  19527-3 0  9990
2 03230  74.0307 110.7074 0025971 263.8672  95.9558 15.03816126104930
OAO 2                   
1 03597U 68110A   26167.98554028  .00000168  00000+0  50445-4 0  9999
2 03597  34.9942  70.8040 0006230 272.3897  87.6080 14.47352028 33499
ISIS 1                  
1 03669U 69009A   26168.19145772  .00000025  00000+0  18734-4 0  9990
2 03669  88.4427 144.3992 1706238 248.2163  92.9234 11.30433819359777
SERT 2                  
1 04327U 70009A   26167.73991270 -.00000005  00000+0  49417-4 0  9996
2 04327  99.2840 105.4770 0003946 274.8566 149.0370 13.58739111793343
SL-3 R/B                
1 05118U 71028B   26168.11906611  .00040273  00000+0  33619-3 0  9991
2 05118  81.2337 288.4273 0013971 280.4766  79.4917 15.69732759  4239
ASTEX 1                 
1 05560U 71089A   26168.07229708  .00000337  00000+0  85643-4 0  9991
2 05560  92.6998 183.8188 0017876 106.5395 253.7777 14.50851647876714
SL-8 R/B                
1 05730U 71119B   26167.94794352  .00002701  00000+0  14046-3 0  9996
2 05730  73.8874 349.9106 0543773 295.9260  58.6817 14.39505599669767
OAO 3 (COPERNICUS)      
1 06153U 72065A   26168.09126617  .00000231  00000+0  51726-4 0  9990
2 06153  35.0058  90.9505 0007321 254.7067 122.1020 14.60060279860737
ATLAS CENTAUR R/B       
1 06155U 72065B   26168.14274164  .00000912  00000+0  12682-3 0  9992
2 06155  35.0013  82.8018 0032977 128.5022 231.8643 14.77921191855980
SL-8 R/B                
1 08459U 75112B   26168.11031563  .00000189  00000+0  70726-4 0  9998
2 08459  74.0592 196.0153 0016866 262.9588  96.9648 14.38246297646168
SL-3 R/B                
1 10114U 77057B   26168.15241080  .00008948  00000+0  17372-3 0  9998
2 10114  97.5835 344.6912 0005423 285.3678  74.6973 15.47882933683708
SEASAT 1                
1 10967U 78064A   26168.17040503  .00000179  00000+0  88430-4 0  9994
2 10967 108.0172 334.2536 0001821 240.4185 119.6779 14.46243308520895
SL-14 R/B               
1 11267U 79011B   26168.04142145  .00000453  00000+0  42061-4 0  9997
2 11267  82.5237   2.2925 0017530  86.0317 274.2907 14.92014186543590
SL-8 R/B                
1 11574U 79089B   26167.99689639  .00000176  00000+0  60959-4 0  9998
2 11574  74.0694 267.2096 0014975  51.0357 309.2131 14.42403968450424
SL-14 R/B               
1 11672U 80005B   26167.85142610  .00000386  00000+0  36386-4 0  9995
2 11672  82.5140 213.1587 0015460 186.9532 173.1475 14.91028698491264
SL-8 R/B                
1 12139U 81003B   26168.08615042  .00013942  00000+0  34032-3 0  9990
2 12139  82.9362 197.8658 0250732 191.5396 168.0029 15.14223523329700
SL-3 R/B                
1 12465U 81046B   26168.12459036  .00008723  00000+0  18828-3 0  9999
2 12465  81.2292 170.1445 0018561  38.0741 322.1811 15.44195563453766
SL-3 R/B                
1 12904U 81103B   26168.11971235  .00003240  00000+0  13944-3 0  9993
2 12904  81.1591  96.7127 0011828 316.2511  43.7783 15.22285438988359
SL-3 R/B                
1 13068U 82013B   26168.15701054  .00002589  00000+0  10906-3 0  9990
2 13068  81.1740  44.0935 0021376 200.9686 159.0672 15.22786530419481
SL-3 R/B                
1 13154U 82039B   26168.16733644  .00002857  00000+0  17025-3 0  9992
2 13154  81.1447 101.1091 0028827 356.3056   3.7952 15.10538576396655
SL-3 R/B                
1 13403U 82079B   26168.11625102  .00003272  00000+0  12605-3 0  9998
2 13403  81.1465  75.5715 0023679 185.7128 174.3840 15.25787935392853
SL-14 R/B               
1 13553U 82092B   26168.06276103  .00000328  00000+0  34023-4 0  9994
2 13553  82.5681  48.4198 0019679 335.6785 142.0721 14.86747786343692
SL-3 R/B                
1 13819U 83010B   26167.73616397  .00011218  00000+0  20406-3 0  9995
2 13819  81.1016 240.5203 0015571  63.9199 296.3648 15.49233621373268
SL-3 R/B                
1 14208U 83075B   26168.13395648  .00007400  00000+0  18359-3 0  9999
2 14208  97.6098 176.6362 0019312 229.2595 130.6974 15.40491238345455
COSMOS 1536             
1 14699U 84013A   26168.09675769  .00005054  00000+0  20056-3 0  9996
2 14699  82.5440   8.9350 0012671 295.7495  64.2435 15.25051767287760
SL-14 R/B               
1 14820U 84027B   26168.21495127  .00000358  00000+0  38083-4 0  9991
2 14820  82.5411 151.6911 0018156   9.1281 351.0262 14.86059706262414
SL-8 R/B                
1 15483U 85006B   26168.09319602  .00000176  00000+0  67058-4 0  9996
2 15483  74.0459  78.2370 0018876 325.3651 137.1638 14.37834980168319
