OBJECT_NAME,OBJECT_ID,EPOCH,MEAN_MOTION,ECCENTRICITY,INCLINATION,RA_OF_ASC_NODE,ARG_OF_PERICENTER,MEAN_ANOMALY,EPHEMERIS_TYPE,CLASSIFICATION_TYPE,NORAD_CAT_ID,ELEMENT_SET_NO,REV_AT_EPOCH,BSTAR,MEAN_MOTION_DOT,MEAN_MOTION_DDOT
ATLAS CENTAUR 2,1963-047A,2026-06-16T22:14:04.544736,14.12519242,.0546001,30.3582,0.8522,235.2149,119.5890,0,U,694,999,14566,.12026E-3,.1112E-4,0
THOR AGENA D R/B,1964-002A,2026-06-17T00:25:02.241984,14.34065479,.0032321,99.1154,186.7402,331.0816,28.8575,0,U,733,999,25253,.58186E-4,.115E-5,0
SL-3 R/B,1964-053B,2026-06-16T23:42:20.628000,14.61426661,.0081009,65.0776,40.0976,261.1712,98.0208,0,U,877,999,28130,.37669E-4,.69E-6,0
SL-8 R/B,1967-045B,2026-06-17T05:22:55.973280,14.45681938,.006343,74.0095,162.1893,146.5774,213.9413,0,U,2802,999,10340,.42816E-4,.127E-5,0
SL-8 R/B,1968-040B,2026-06-16T23:36:04.032000,15.03816126,.0025971,74.0307,110.7074,263.8672,95.9558,0,U,3230,999,10493,.19527E-3,.2661E-4,0
OAO 2,1968-110A,2026-06-16T23:39:10.680192,14.47352028,.000623,34.9942,70.8040,272.3897,87.6080,0,U,3597,999,3349,.50445E-4,.168E-5,0
ISIS 1,1969-009A,2026-06-17T04:35:41.947008,11.30433819,.1706238,88.4427,144.3992,248.2163,92.9234,0,U,3669,999,35977,.18734E-4,.25E-6,0
SERT 2,1970-009A,2026-06-16T17:45:28.457280,13.58739111,.0003946,99.2840,105.4770,274.8566,149.0370,0,U,4327,999,79334,.49417E-4,-.5E-7,0
SL-3 R/B,1971-028B,2026-06-17T02:51:27.311904,15.69732759,.0013971,81.2337,288.4273,280.4766,79.4917,0,U,5118,999,423,.33619E-3,.40273E-3,0
ASTEX 1,1971-089A,2026-06-17T01:44:06.467712,14.50851647,.0017876,92.6998,183.8188,106.5395,253.7777,0,U,5560,999,87671,.85643E-4,.337E-5,0
SL-8 R/B,1971-119B,2026-06-16T22:45:02.320128,14.39505599,.0543773,73.8874,349.9106,295.9260,58.6817,0,U,5730,999,66976,.14046E-3,.2701E-4,0
OAO 3 (COPERNICUS),1972-065A,2026-06-17T02:11:25.397088,14.60060279,.0007321,35.0058,90.9505,254.7067,122.1020,0,U,6153,999,86073,.51726E-4,.231E-5,0
ATLAS CENTAUR R/B,1972-065B,2026-06-17T03:25:32.877696,14.77921191,.0032977,35.0013,82.8018,128.5022,231.8643,0,U,6155,999,85598,.12682E-3,.912E-5,0
SL-8 R/B,1975-112B,2026-06-17T02:38:51.270432,14.38246297,.0016866,74.0592,196.0153,262.9588,96.9648,0,U,8459,999,64616,.70726E-4,.189E-5,0
SL-3 R/B,1977-057B,2026-06-17T03:39:28.293120,15.47882933,.0005423,97.5835,344.6912,285.3678,74.6973,0,U,10114,999,68370,.17372E-3,.8948E-4,0
SEASAT 1,1978-064A,2026-06-17T04:05:22.994592,14.46243308,.0001821,108.0172,334.2536,240.4185,119.6779,0,U,10967,999,52089,.8843E-4,.179E-5,0
SL-14 R/B,1979-011B,2026-06-17T00:59:38.813280,14.92014186,.001753,82.5237,2.2925,86.0317,274.2907,0,U,11267,999,54359,.42061E-4,.453E-5,0
SL-8 R/B,1979-089B,2026-06-16T23:55:31.848096,14.42403968,.0014975,74.0694,267.2096,51.0357,309.2131,0,U,11574,999,45042,.60959E-4,.176E-5,0
SL-14 R/B,1980-005B,2026-06-16T20:26:03.215040,14.91028698,.001546,82.5140,213.1587,186.9532,173.1475,0,U,11672,999,49126,.36386E-4,.386E-5,0
SL-8 R/B,1981-003B,2026-06-17T02:04:03.396288,15.14223523,.0250732,82.9362,197.8658,191.5396,168.0029,0,U,12139,999,32970,.34032E-3,.13942E-3,0
SL-3 R/B,1981-046B,2026-06-17T02:59:24.607104,15.44195563,.0018561,81.2292,170.1445,38.0741,322.1811,0,U,12465,999,45376,.18828E-3,.8723E-4,0
SL-3 R/B,1981-103B,2026-06-17T02:52:23.147040,15.22285438,.0011828,81.1591,96.7127,316.2511,43.7783,0,U,12904,999,98835,.13944E-3,.324E-4,0
SL-3 R/B,1982-013B,2026-06-17T03:46:05.710656,15.22786530,.0021376,81.1740,44.0935,200.9686,159.0672,0,U,13068,999,41948,.10906E-3,.2589E-4,0
SL-3 R/B,1982-039B,2026-06-17T04:00:57.868416,15.10538576,.0028827,81.1447,101.1091,356.3056,3.7952,0,U,13154,999,39665,.17025E-3,.2857E-4,0
SL-3 R/B,1982-079B,2026-06-17T02:47:24.088128,15.25787935,.0023679,81.1465,75.5715,185.7128,174.3840,0,U,13403,999,39285,.12605E-3,.3272E-4,0
SL-14 R/B,1982-092B,2026-06-17T01:30:22.552992,14.86747786,.0019679,82.5681,48.4198,335.6785,142.0721,0,U,13553,999,34369,.34023E-4,.328E-5,0
SL-3 R/B,1983-010B,2026-06-16T17:40:04.567008,15.49233621,.0015571,81.1016,240.5203,63.9199,296.3648,0,U,13819,999,37326,.20406E-3,.11218E-3,0
SL-3 R/B,1983-075B,2026-06-17T03:12:53.839872,15.40491238,.0019312,97.6098,176.6362,229.2595,130.6974,0,U,14208,999,34545,.18359E-3,.74E-4,0
COSMOS 1536,1984-013A,2026-06-17T02:19:19.864416,15.25051767,.0012671,82.5440,8.9350,295.7495,64.2435,0,U,14699,999,28776,.20056E-3,.5054E-4,0
SL-14 R/B,1984-027B,2026-06-17T05:09:31.789728,14.86059706,.0018156,82.5411,151.6911,9.1281,351.0262,0,U,14820,999,26241,.38083E-4,.358E-5,0
SL-8 R/B,1985-006B,2026-06-17T02:14:12.136128,14.37834980,.0018876,74.0459,78.2370,325.3651,137.1638,0,U,15483,999,16831,.67058E-4,.176E-5,0
